NORAD_CAT_ID,OBJECT_NAME,OBJECT_TYPE,EPOCH,MEAN_MOTION,ECCENTRICITY,INCLINATION,RA_OF_ASC_NODE,ARG_OF_PERICENTER,MEAN_ANOMALY,BSTAR,MEAN_MOTION_DOT,MEAN_MOTION_DDOT,TLE_LINE0,TLE_LINE1,TLE_LINE2,SEMIMAJOR_AXIS,PERIOD,APOGEE,PERIGEE,DECAYED
53741.0,STARLINK-4614,PAYLOAD,2023-03-17 11:13:20,15.08836048,0.000128,53.2171,94.1094,88.3598,271.754,-3.866e-05,-9.03e-06,0.0,0 STARLINK-4614,1 53741U 22107AT  23076.46760268 -.00000903  00000-0 -38660-4 0  9990,2 53741  53.2171  94.1094 0001280  88.3598 271.7540 15.08836048 30529,6917.892,95.438,540.643,538.872,0.0
53741.0,STARLINK-4614,PAYLOAD,2023-03-17 17:34:53,15.08839391,0.0001265,53.2172,92.92,88.4235,271.6902,-3.6212e-05,-8.64e-06,0.0,0 STARLINK-4614,1 53741U 22107AT  23076.73256054 -.00000864  00000-0 -36212-4 0  9990,2 53741  53.2172  92.9200 0001265  88.4235 271.6902 15.08839391 30566,6917.882,95.438,540.622,538.872,0.0
53741.0,STARLINK-4614,PAYLOAD,2023-03-18 11:04:07,15.08839436,0.0001258,53.2172,89.6493,88.4911,271.6226,3.8599e-05,3.26e-06,0.0,0 STARLINK-4614,1 53741U 22107AT  23077.46119912  .00000326  00000-0  38599-4 0  9993,2 53741  53.2172  89.6493 0001258  88.4911 271.6226 15.08839436 29899,6917.882,95.438,540.617,538.877,0.0
53741.0,STARLINK-4614,PAYLOAD,2023-03-18 17:25:40,15.08838618,0.0001246,53.2172,88.4599,88.3862,271.7272,1.5849e-05,-3.6e-07,0.0,0 STARLINK-4614,1 53741U 22107AT  23077.72616049 -.00000036  00000-0  15849-4 0  9997,2 53741  53.2172  88.4599 0001246  88.3862 271.7272 15.08838618 30710,6917.885,95.438,540.612,538.888,0.0
53741.0,STARLINK-4614,PAYLOAD,2023-03-19 10:54:54,15.08839081,0.0001273,53.2173,85.1888,88.7363,271.3775,9.1503e-05,1.169e-05,0.0,0 STARLINK-4614,1 53741U 22107AT  23078.45479985  .00001169  00000-0  91503-4 0  9992,2 53741  53.2173  85.1888 0001273  88.7363 271.3775 15.08839081 30827,6917.883,95.438,540.629,538.868,0.0
53741.0,STARLINK-4614,PAYLOAD,2023-03-19 17:16:27,15.08834671,0.0001292,53.2174,83.9993,88.6722,271.4418,4.2824e-05,3.94e-06,0.0,0 STARLINK-4614,1 53741U 22107AT  23078.71976461  .00000394  00000-0  42824-4 0  9993,2 53741  53.2174  83.9993 0001292  88.6722 271.4418 15.08834671 30083,6917.897,95.438,540.655,538.868,0.0
53741.0,STARLINK-4614,PAYLOAD,2023-03-20 09:10:18,15.08839123,0.0001309,53.2175,81.0255,89.4516,270.6626,1.4218e-05,-6.2e-07,0.0,0 STARLINK-4614,1 53741U 22107AT  23079.38216372 -.00000062  00000-0  14218-4 0  9994,2 53741  53.2175  81.0255 0001309  89.4516 270.6626 15.08839123 30969,6917.883,95.438,540.654,538.843,0.0
53741.0,STARLINK-4614,PAYLOAD,2023-03-20 17:07:14,15.08838471,0.0001329,53.2178,79.5389,92.0737,268.0408,2.5348e-05,1.16e-06,0.0,0 STARLINK-4614,1 53741U 22107AT  23079.71336372  .00000116  00000-0  25348-4 0  9999,2 53741  53.2178  79.5389 0001329  92.0737 268.0408 15.08838471 31010,6917.885,95.438,540.669,538.831,0.0
53741.0,STARLINK-4614,PAYLOAD,2023-03-21 07:25:42,15.08841476,0.0001321,53.2178,76.8621,93.7962,266.3181,2.5192e-05,1.13e-06,0.0,0 STARLINK-4614,1 53741U 22107AT  23080.30952170  .00000113  00000-0  25192-4 0  9990,2 53741  53.2178  76.8621 0001321  93.7962 266.3181 15.08841476 30320,6917.876,95.437,540.655,538.827,0.0
53741.0,STARLINK-4614,PAYLOAD,2023-03-21 09:01:05,15.08841702,0.0001321,53.2177,76.5647,93.6965,266.4178,2.6686e-05,1.37e-06,0.0,0 STARLINK-4614,1 53741U 22107AT  23080.37576145  .00000137  00000-0  26686-4 0  9996,2 53741  53.2177  76.5647 0001321  93.6965 266.4178 15.08841702 31113,6917.875,95.437,540.654,538.826,0.0
53741.0,STARLINK-4614,PAYLOAD,2023-03-21 12:11:52,15.08841685,0.0001319,53.2177,75.9699,93.5467,266.5676,2.5652e-05,1.2e-06,0.0,0 STARLINK-4614,1 53741U 22107AT  23080.50824128  .00000120  00000-0  25652-4 0  9992,2 53741  53.2177  75.9699 0001319  93.5467 266.5676 15.08841685 31132,6917.875,95.437,540.653,538.828,0.0
53741.0,STARLINK-4614,PAYLOAD,2023-03-22 08:51:53,15.08837731,0.0001336,53.2178,72.1044,93.6166,266.4979,2.5746e-05,1.22e-06,0.0,0 STARLINK-4614,1 53741U 22107AT  23081.36936537  .00000122  00000-0  25746-4 0  9991,2 53741  53.2178  72.1044 0001336  93.6166 266.4979 15.08837731 30481,6917.887,95.438,540.677,538.828,0.0
53741.0,STARLINK-4614,PAYLOAD,2023-03-22 16:48:48,15.0883674,0.0001332,53.2179,70.6175,92.848,267.2664,1.3872e-05,-6.7e-07,0.0,0 STARLINK-4614,1 53741U 22107AT  23081.70056675 -.00000067  00000-0  13872-4 0  9991,2 53741  53.2179  70.6175 0001332  92.8480 267.2664 15.08836740 31318,6917.89,95.438,540.677,538.834,0.0
53741.0,STARLINK-4614,PAYLOAD,2023-03-23 08:42:40,15.08839892,0.0001324,53.2177,67.644,90.6831,269.4313,2.9406e-05,1.8e-06,0.0,0 STARLINK-4614,1 53741U 22107AT  23082.36296491  .00000180  00000-0  29406-4 0  9991,2 53741  53.2177  67.6440 0001324  90.6831 269.4313 15.08839892 31411,6917.881,95.438,540.662,538.83,0.0
53741.0,STARLINK-4614,PAYLOAD,2023-03-24 05:22:40,15.08846911,0.000127,53.2177,63.7782,89.245,270.8688,0.00010819,1.435e-05,0.0,0 STARLINK-4614,1 53741U 22107AT  23083.22407952  .00001435  00000-0  10819-3 0  9994,2 53741  53.2177  63.7782 0001270  89.2450 270.8688 15.08846911 30766,6917.859,95.437,540.603,538.846,0.0
53741.0,STARLINK-4614,PAYLOAD,2023-03-24 10:08:49,15.08848235,0.0001307,53.2178,62.8863,88.8155,271.2987,0.00011462,1.537e-05,0.0,0 STARLINK-4614,1 53741U 22107AT  23083.42279726  .00001537  00000-0  11462-3 0  9990,2 53741  53.2178  62.8863 0001307  88.8155 271.2987 15.08848235 31573,6917.855,95.437,540.624,538.816,0.0
53741.0,STARLINK-4614,PAYLOAD,2023-03-25 03:38:04,15.08837828,0.0001413,53.218,59.6152,90.3915,269.7239,8.0038e-06,-1.61e-06,0.0,0 STARLINK-4614,1 53741U 22107AT  23084.15144639 -.00000161  00000-0  80038-5 0  9995,2 53741  53.2180  59.6152 0001413  90.3915 269.7239 15.08837828 30905,6917.887,95.438,540.73,538.775,0.0
53741.0,STARLINK-4614,PAYLOAD,2023-03-25 22:42:43,15.08831193,0.0001281,53.2182,56.0475,94.8883,265.2256,-0.00011275,-2.081e-05,0.0,0 STARLINK-4614,1 53741U 22107AT  23084.94633697 -.00002081  00000-0 -11275-3 0  9998,2 53741  53.2182  56.0475 0001281  94.8883 265.2256 15.08831193 31801,6917.907,95.438,540.658,538.886,0.0
53741.0,STARLINK-4614,PAYLOAD,2023-03-26 05:04:16,15.08831358,0.0001286,53.2182,54.8582,95.4305,264.6834,-0.00010434,-1.948e-05,0.0,0 STARLINK-4614,1 53741U 22107AT  23085.21129781 -.00001948  00000-0 -10434-3 0  9990,2 53741  53.2182  54.8582 0001286  95.4305 264.6834 15.08831358 31063,6917.907,95.438,540.661,538.882,0.0
53741.0,STARLINK-4614,PAYLOAD,2023-03-26 22:33:30,15.08829677,0.0001193,53.2185,51.5869,99.3066,260.8061,-3.9141e-06,-3.5e-06,0.0,0 STARLINK-4614,1 53741U 22107AT  23085.93993980 -.00000350  00000-0 -39141-5 0  9993,2 53741  53.2185  51.5869 0001193  99.3066 260.8061 15.08829677 31951,6917.912,95.438,540.602,538.952,0.0
53741.0,STARLINK-4614,PAYLOAD,2023-03-27 06:30:26,15.0882961,0.0001288,53.2185,50.1002,100.5416,259.5721,7.9549e-05,9.78e-06,0.0,0 STARLINK-4614,1 53741U 22107AT  23086.27113955  .00000978  00000-0  79549-4 0  9996,2 53741  53.2185  50.1002 0001288 100.5416 259.5721 15.08829610 31229,6917.912,95.438,540.668,538.886,0.0
53741.0,STARLINK-4614,PAYLOAD,2023-03-27 22:24:17,15.08834029,0.0001196,53.2186,47.1262,99.9755,260.1372,0.00013794,1.908e-05,0.0,0 STARLINK-4614,1 53741U 22107AT  23086.93353858  .00001908  00000-0  13794-3 0  9990,2 53741  53.2186  47.1262 0001196  99.9755 260.1372 15.08834029 32107,6917.899,95.438,540.591,538.936,0.0
53741.0,STARLINK-4614,PAYLOAD,2023-03-28 06:21:13,15.08838245,0.0001221,53.2187,45.6396,99.1862,260.9268,0.00016645,2.362e-05,0.0,0 STARLINK-4614,1 53741U 22107AT  23087.26473711  .00002362  00000-0  16645-3 0  9991,2 53741  53.2187  45.6396 0001221  99.1862 260.9268 15.08838245 31373,6917.886,95.438,540.595,538.906,0.0
53741.0,STARLINK-4614,PAYLOAD,2023-03-28 20:39:41,15.08840276,0.0001238,53.2188,42.9633,100.1132,260.0,0.00013328,1.834e-05,0.0,0 STARLINK-4614,1 53741U 22107AT  23087.86089761  .00001834  00000-0  13328-3 0  9993,2 53741  53.2188  42.9633 0001238 100.1132 260.0000 15.08840276 32248,6917.88,95.438,540.601,538.888,0.0
53741.0,STARLINK-4614,PAYLOAD,2023-03-29 06:12:00,15.0884651,0.0001252,53.2189,41.1791,97.738,262.3754,0.00013852,1.918e-05,0.0,0 STARLINK-4614,1 53741U 22107AT  23088.25833429  .00001918  00000-0  13852-3 0  9990,2 53741  53.2189  41.1791 0001252  97.7380 262.3754 15.08846510 32302,6917.86,95.437,540.592,538.859,0.0
53741.0,STARLINK-4614,PAYLOAD,2023-03-30 06:02:47,15.08832645,0.0001475,53.2191,36.7187,112.0735,248.0414,-8.3381e-05,-1.614e-05,0.0,0 STARLINK-4614,1 53741U 22107AT  23089.25194292 -.00001614  00000-0 -83381-4 0  9999,2 53741  53.2191  36.7187 0001475 112.0735 248.0414 15.08832645 31673,6917.903,95.438,540.788,538.747,0.0
53741.0,STARLINK-4614,PAYLOAD,2023-03-30 21:56:39,15.08833881,0.0001276,53.219,33.7458,113.0507,247.0619,-4.2309e-05,-9.61e-06,0.0,0 STARLINK-4614,1 53741U 22107AT  23089.91434232 -.00000961  00000-0 -42309-4 0  9992,2 53741  53.2190  33.7458 0001276 113.0507 247.0619 15.08833881 32554,6917.899,95.438,540.647,538.881,0.0
53741.0,STARLINK-4614,PAYLOAD,2023-03-31 20:12:03,15.08833715,0.0001815,53.2188,29.5828,116.7746,243.3431,0.00011511,1.544e-05,0.0,0 STARLINK-4614,1 53741U 22107AT  23090.84170149  .00001544  00000-0  11511-3 0  9996,2 53741  53.2188  29.5828 0001815 116.7746 243.3431 15.08833715 31915,6917.9,95.438,541.02,538.509,0.0
53741.0,STARLINK-4614,PAYLOAD,2023-04-01 05:44:22,15.08838363,0.000166,53.2179,27.7988,110.3815,249.7355,0.00034126,5.147e-05,0.0,0 STARLINK-4614,1 53741U 22107AT  23091.23914539  .00005147  00000-0  34126-3 0  9999,2 53741  53.2179  27.7988 0001660 110.3815 249.7355 15.08838363 32759,6917.885,95.438,540.899,538.602,0.0
53741.0,STARLINK-4614,PAYLOAD,2023-04-02 05:35:08,15.08852084,0.0001665,53.2183,23.3384,111.2933,248.8237,0.00031094,4.666e-05,0.0,0 STARLINK-4614,1 53741U 22107AT  23092.23273807  .00004666  00000-0  31094-3 0  9992,2 53741  53.2183  23.3384 0001665 111.2933 248.8237 15.08852084 32128,6917.843,95.437,540.86,538.557,0.0
